[{"OBJECT_NAME":"WILDFIRE 9","OBJECT_ID":"2023-133J","EPOCH":"2026-03-09T14:40:36.790752","MEAN_MOTION":13.85385893,"ECCENTRICITY":0.0004797,"INCLINATION":81.0007,"RA_OF_ASC_NODE":103.5212,"ARG_OF_PERICENTER":283.4669,"MEAN_ANOMALY":76.5953,"EPHEMERIS_TYPE":0,"CLASSIFICATION_TYPE":"U","NORAD_CAT_ID":57765,"ELEMENT_SET_NO":999,"REV_AT_EPOCH":12723,"BSTAR":6.5194e-5,"MEAN_MOTION_DOT":8.5e-7,"MEAN_MOTION_DDOT":0},{"OBJECT_NAME":"SL-14 DEB","OBJECT_ID":"1987-068AA","EPOCH":"2026-03-08T04:58:59.990592","MEAN_MOTION":13.80228304,"ECCENTRICITY":0.00962542,"INCLINATION":82.3661,"RA_OF_ASC_NODE":336.2796,"ARG_OF_PERICENTER":49.4822,"MEAN_ANOMALY":311.467,"EPHEMERIS_TYPE":0,"CLASSIFICATION_TYPE":"U","NORAD_CAT_ID":25199,"ELEMENT_SET_NO":999,"REV_AT_EPOCH":40470,"BSTAR":0.0012802551,"MEAN_MOTION_DOT":1.396e-5,"MEAN_MOTION_DDOT":0}]
